[{"OBJECT_NAME":"TIANMU-1 07","OBJECT_ID":"2023-101A","EPOCH":"2026-03-06T13:47:20.454720","MEAN_MOTION":15.29118809,"ECCENTRICITY":0.00046097,"INCLINATION":97.2728,"RA_OF_ASC_NODE":118.5929,"ARG_OF_PERICENTER":142.4105,"MEAN_ANOMALY":217.7458,"EPHEMERIS_TYPE":0,"CLASSIFICATION_TYPE":"U","NORAD_CAT_ID":57399,"ELEMENT_SET_NO":999,"REV_AT_EPOCH":14596,"BSTAR":0.00029794732,"MEAN_MOTION_DOT":8.352e-5,"MEAN_MOTION_DDOT":0},{"OBJECT_NAME":"STARLINK-35876","OBJECT_ID":"2025-303T","EPOCH":"2026-03-09T03:36:28.703808","MEAN_MOTION":15.27561943,"ECCENTRICITY":0.00017806,"INCLINATION":43.0004,"RA_OF_ASC_NODE":313.675,"ARG_OF_PERICENTER":280.7112,"MEAN_ANOMALY":79.3539,"EPHEMERIS_TYPE":0,"CLASSIFICATION_TYPE":"U","NORAD_CAT_ID":67180,"ELEMENT_SET_NO":999,"REV_AT_EPOCH":1265,"BSTAR":0.00090905271,"MEAN_MOTION_DOT":0.00024824,"MEAN_MOTION_DDOT":0}]
