TIANMU-1 07             
1 57399U 23101A   26065.57454230  .00008352  00000+0  29795-3 0  9991
2 57399  97.2728 118.5929 0004609 142.4105 217.7458 15.29118809145964
STARLINK-35876          
1 67180U 25303T   26068.15033222  .00024824  00000+0  90905-3 0  9990
2 67180  43.0004 313.6750 0001780 280.7112  79.3539 15.27561943 12650
